      'RA_OF_ASC_NODE': 317.1224,
      'ARG_OF_PERICENTER': 120.5447,
      'MEAN_ANOMALY': 91.2577,
      'EPHEMERIS_TYPE': 0,
      'CLASSIFICATION_TYPE': 'U',
      'NORAD_CAT_ID': 44957,
      'ELEMENT_SET_NO': 999,
      'REV_AT_EPOCH': 2580,
      'BSTAR': 0.00229,
      'MEAN_MOTION_DOT': 0.00033169,
      'MEAN_MOTION_DDOT': 0,
      'SEMIMAJOR_AXIS': 6927.919,
      'PERIOD': 95.645,
      'APOAPSIS': 550.777,
      'PERIAPSIS': 548.792,
      'OBJECT_TYPE': 'PAYLOAD',
      'RCS_SIZE': 'LARGE',
      'COUNTRY_CODE': 'US',
      'LAUNCH_DATE': '2020-01-07',
      'SITE': 'AFETR',
      'DECAY_DATE': null,
      'DECAYED': 0,
      'FILE': 2770046,
      'GP_ID': 156071146,
      'TLE_LINE0': '0 STARLINK-1074',
      'TLE_LINE1':
          '1 44957U 20001AV  20173.33335648  .00033169  00000-0  22861-2 0  9993',
      'TLE_LINE2':
          '2 44957  52.9990 317.1224 0001433 120.5447  91.2577 15.05561442 25808'
    },
    'version': 'v1.0',
    'launch': '5eb87d3cffd86e000604b380',
    'id': '5eed7714096e5900069856a9'
  },
  {
    'spaceTrack': {
      'CCSDS_OMM_VERS': '2.0',
      'COMMENT': 'GENERATED VIA SPACE-TRACK.ORG API',
      'CREATION_DATE': '2020-06-21 10:06:09',
      'ORIGINATOR': '18 SPCS',
      'OBJECT_NAME': 'STARLINK-1126',
      'OBJECT_ID': '2020-001AP',
      'CENTER_NAME': 'EARTH',
      'REF_FRAME': 'TEME',
      'TIME_SYSTEM': 'UTC',
      'MEAN_ELEMENT_THEORY': 'SGP4',
      'EPOCH': '2020-06-21 04:11:38.207328',
      'MEAN_MOTION': 15.05612646,
      'ECCENTRICITY': 0.0001886,
      'INCLINATION': 53.004,
      'RA_OF_ASC_NODE': 337.8386,
      'ARG_OF_PERICENTER': 116.5943,
      'MEAN_ANOMALY': 243.5238,
      'EPHEMERIS_TYPE': 0,
      'CLASSIFICATION_TYPE': 'U',
      'NORAD_CAT_ID': 44951,
      'ELEMENT_SET_NO': 999,
      'REV_AT_EPOCH': 2679,
      'BSTAR': 0.00001,
      'MEAN_MOTION_DOT': -8.5e-7,
      'MEAN_MOTION_DDOT': 0,
      'SEMIMAJOR_AXIS': 6927.762,
      'PERIOD': 95.642,
      'APOAPSIS': 550.934,
      'PERIAPSIS': 548.321,
      'OBJECT_TYPE': 'PAYLOAD',
      'RCS_SIZE': 'LARGE',
      'COUNTRY_CODE': 'US',
      'LAUNCH_DATE': '2020-01-07',
      'SITE': 'AFETR',
      'DECAY_DATE': null,
      'DECAYED': 0,
      'FILE': 2770054,
      'GP_ID': 156071161,
      'TLE_LINE0': '0 STARLINK-1126',
      'TLE_LINE1':
          '1 44951U 20001AP  20173.17474777 -.00000085  00000-0  13324-4 0  9994',
      'TLE_LINE2':
          '2 44951  53.0039 337.8386 0001886 116.5943 243.5238 15.05612646 26792'
    },
    'version': 'v1.0',
    'launch': '5eb87d3cffd86e000604b380',
    'id': '5eed7714096e5900069856aa'
  },
  {
    'spaceTrack': {
      'CCSDS_OMM_VERS': '2.0',
      'COMMENT': 'GENERATED VIA SPACE-TRACK.ORG API',
      'CREATION_DATE': '2020-06-21 10:06:09',
      'ORIGINATOR': '18 SPCS',
      'OBJECT_NAME': 'STARLINK-1086',
      'OBJECT_ID': '2020-001BC',
      'CENTER_NAME': 'EARTH',
      'REF_FRAME': 'TEME',
      'TIME_SYSTEM': 'UTC',
      'MEAN_ELEMENT_THEORY': 'SGP4',
      'EPOCH': '2020-06-21 08:00:01.999872',
      'MEAN_MOTION': 15.05576789,
      'ECCENTRICITY': 0.0001465,
      'INCLINATION': 53,
      'RA_OF_ASC_NODE': 317.1249,
      'ARG_OF_PERICENTER': 119.5206,
      'MEAN_ANOMALY': 182.2856,
      'EPHEMERIS_TYPE': 0,
      'CLASSIFICATION_TYPE': 'U',
      'NORAD_CAT_ID': 44964,
      'ELEMENT_SET_NO': 999,
      'REV_AT_EPOCH': 2580,
      'BSTAR': 0.00247,
      'MEAN_MOTION_DOT': 0.00035852,
      'MEAN_MOTION_DDOT': 0,
      'SEMIMAJOR_AXIS': 6927.872,
      'PERIOD': 95.644,
      'APOAPSIS': 550.752,
      'PERIAPSIS': 548.722,
      'OBJECT_TYPE': 'PAYLOAD',
      'RCS_SIZE': 'LARGE',
      'COUNTRY_CODE': 'US',
      'LAUNCH_DATE': '2020-01-07',
      'SITE': 'AFETR',
      'DECAY_DATE': null,
      'DECAYED': 0,
      'FILE': 2770046,
      'GP_ID': 156071137,
      'TLE_LINE0': '0 STARLINK-1086',
      'TLE_LINE1':
          '1 44964U 20001BC  20173.33335648  .00035852  00000-0  24675-2 0  9997',
      'TLE_LINE2':
          '2 44964  52.9995 317.1249 0001465 119.5206 182.2856 15.05576789 25805'
    },
    'version': 'v1.0',
    'launch': '5eb87d3cffd86e000604b380',
    'id': '5eed7714096e5900069856ab'
  },
  {
    'spaceTrack': {
      'CCSDS_OMM_VERS': '2.0',
      'COMMENT': 'GENERATED VIA SPACE-TRACK.ORG API',
      'CREATION_DATE': '2020-06-21 10:06:09',
      'ORIGINATOR': '18 SPCS',
      'OBJECT_NAME': 'STARLINK-1107',
      'OBJECT_ID': '2020-001BL',
      'CENTER_NAME': 'EARTH',
      'REF_FRAME': 'TEME',
      'TIME_SYSTEM': 'UTC',
      'MEAN_ELEMENT_THEORY': 'SGP4',
      'EPOCH': '2020-06-21 08:00:01.999872',
      'MEAN_MOTION': 15.05563004,
      'ECCENTRICITY': 0.0001138,
      'INCLINATION': 53.001,
      'RA_OF_ASC_NODE': 317.1161,
      'ARG_OF_PERICENTER': 109.717,
      'MEAN_ANOMALY': 300.0299,
      'EPHEMERIS_TYPE': 0,
      'CLASSIFICATION_TYPE': 'U',
      'NORAD_CAT_ID': 44972,
      'ELEMENT_SET_NO': 999,
      'REV_AT_EPOCH': 2581,
      'BSTAR': 0.0026,
      'MEAN_MOTION_DOT': 0.0003778,
      'MEAN_MOTION_DDOT': 0,
      'SEMIMAJOR_AXIS': 6927.915,
      'PERIOD': 95.645,
      'APOAPSIS': 550.568,
      'PERIAPSIS': 548.991,
      'OBJECT_TYPE': 'PAYLOAD',
      'RCS_SIZE': 'LARGE',
      'COUNTRY_CODE': 'US',
      'LAUNCH_DATE': '2020-01-07',
      'SITE': 'AFETR',
      'DECAY_DATE': null,
      'DECAYED': 0,
      'FILE': 2770047,
      'GP_ID': 156071299,
      'TLE_LINE0': '0 STARLINK-1107',
      'TLE_LINE1':
          '1 44972U 20001BL  20173.33335648  .00037780  00000-0  25994-2 0  9993',
      'TLE_LINE2':
          '2 44972  53.0008 317.1161 0001138 109.7170 300.0299 15.05563004 25810'
    },
    'version': 'v1.0',
    'launch': '5eb87d3cffd86e000604b380',
    'id': '5eed7714096e5900069856ac'
  },
  {
    'spaceTrack': {
      'CCSDS_OMM_VERS': '2.0',
      'COMMENT': 'GENERATED VIA SPACE-TRACK.ORG API',
      'CREATION_DATE': '2020-06-21 10:06:09',
      'ORIGINATOR': '18 SPCS',
      'OBJECT_NAME': 'STARLINK-1089',
      'OBJECT_ID': '2020-001BF',
      'CENTER_NAME': 'EARTH',
      'REF_FRAME': 'TEME',
      'TIME_SYSTEM': 'UTC',
      'MEAN_ELEMENT_THEORY': 'SGP4',
      'EPOCH': '2020-06-21 08:00:01.999872',
      'MEAN_MOTION': 15.0556732,
      'ECCENTRICITY': 0.0001402,
      'INCLINATION': 53,
      'RA_OF_ASC_NODE': 317.116,
      'ARG_OF_PERICENTER': 140.7396,
      'MEAN_ANOMALY': 287.0925,
      'EPHEMERIS_TYPE': 0,
      'CLASSIFICATION_TYPE': 'U',
      'NORAD_CAT_ID': 44967,
      'ELEMENT_SET_NO': 999,
      'REV_AT_EPOCH': 2581,
      'BSTAR': 0.00256,
      'MEAN_MOTION_DOT': 0.00037265,
      'MEAN_MOTION_DDOT': 0,
      'SEMIMAJOR_AXIS': 6927.901,
      'PERIOD': 95.645,
      'APOAPSIS': 550.738,
      'PERIAPSIS': 548.795,
      'OBJECT_TYPE': 'PAYLOAD',
      'RCS_SIZE': 'LARGE',
      'COUNTRY_CODE': 'US',
      'LAUNCH_DATE': '2020-01-07',
      'SITE': 'AFETR',
      'DECAY_DATE': null,
      'DECAYED': 0,
      'FILE': 2770046,
      'GP_ID': 156071285,
      'TLE_LINE0': '0 STARLINK-1089',
      'TLE_LINE1':
          '1 44967U 20001BF  20173.33335648  .00037265  00000-0  25641-2 0  9994',
      'TLE_LINE2':
          '2 44967  52.9996 317.1160 0001402 140.7396 287.0925 15.05567320 25811'
    },
    'version': 'v1.0',
    'launch': '5eb87d3cffd86e000604b380',
    'id': '5eed7714096e5900069856ad'
  },
  {
    'spaceTrack': {
      'CCSDS_OMM_VERS': '2.0',
      'COMMENT': 'GENERATED VIA SPACE-TRACK.ORG API',
      'CREATION_DATE': '2020-06-21 03:47:55',
      'ORIGINATOR': '18 SPCS',
      'OBJECT_NAME': 'STARLINK-1171',
      'OBJECT_ID': '2020-006U',
      'CENTER_NAME': 'EARTH',
      'REF_FRAME': 'TEME',
      'TIME_SYSTEM': 'UTC',
      'MEAN_ELEMENT_THEORY': 'SGP4',
      'EPOCH': '2020-06-20 22:00:01.999584',
      'MEAN_MOTION': 15.05590904,
      'ECCENTRICITY': 0.0001144,
      'INCLINATION': 52.999,
      'RA_OF_ASC_NODE': 298.9953,
      'ARG_OF_PERICENTER': 103.0773,
      'MEAN_ANOMALY': 281.1589,
      'EPHEMERIS_TYPE': 0,
      'CLASSIFICATION_TYPE': 'U',
      'NORAD_CAT_ID': 45062,
      'ELEMENT_SET_NO': 999,
      'REV_AT_EPOCH': 176,
      'BSTAR': -0.00079,
      'MEAN_MOTION_DOT': -0.00011771,
      'MEAN_MOTION_DDOT': 0,
      'SEMIMAJOR_AXIS': 6927.829,
      'PERIOD': 95.643,
      'APOAPSIS': 550.486,
      'PERIAPSIS': 548.901,
      'OBJECT_TYPE': 'PAYLOAD',
      'RCS_SIZE': 'LARGE',
      'COUNTRY_CODE': 'US',
      'LAUNCH_DATE': '2020-01-29',
      'SITE': 'AFETR',
      'DECAY_DATE': null,
      'DECAYED': 0,
      'FILE': 2769847,
      'GP_ID': 156066388,
      'TLE_LINE0': '0 STARLINK-1171',
      'TLE_LINE1':
          '1 45062U 20006U   20172.91668981 -.00011771 +00000-0 -78982-3 0  9991',
      'TLE_LINE2':
          '2 45062 052.9994 298.9953 0001144 103.0773 281.1589 15.05590904001769'
    },
    'version': 'v1.0',
    'launch': '5eb87d3fffd86e000604b382',
    'id': '5eed7714096e5900069856ae'
  },
  {
    'spaceTrack': {
      'CCSDS_OMM_VERS': '2.0',
      'COMMENT': 'GENERATED VIA SPACE-TRACK.ORG API',
      'CREATION_DATE': '2020-06-21 10:06:09',
      'ORIGINATOR': '18 SPCS',
      'OBJECT_NAME': 'STARLINK-1081',
      'OBJECT_ID': '2020-001BA',
      'CENTER_NAME': 'EARTH',
      'REF_FRAME': 'TEME',
      'TIME_SYSTEM': 'UTC',
      'MEAN_ELEMENT_THEORY': 'SGP4',
      'EPOCH': '2020-06-21 08:00:01.999872',
      'MEAN_MOTION': 15.05571337,
      'ECCENTRICITY': 0.0001424,
      'INCLINATION': 52.999,
      'RA_OF_ASC_NODE': 317.1208,
      'ARG_OF_PERICENTER': 119.0892,
      'MEAN_ANOMALY': 254.6827,
      'EPHEMERIS_TYPE': 0,
      'CLASSIFICATION_TYPE': 'U',
      'NORAD_CAT_ID': 44962,
      'ELEMENT_SET_NO': 999,
      'REV_AT_EPOCH': 2581,
      'BSTAR': 0.00263,
      'MEAN_MOTION_DOT': 0.00038226,
      'MEAN_MOTION_DDOT': 0,
      'SEMIMAJOR_AXIS': 6927.889,
      'PERIOD': 95.644,
      'APOAPSIS': 550.74,
      'PERIAPSIS': 548.767,
      'OBJECT_TYPE': 'PAYLOAD',
      'RCS_SIZE': 'LARGE',
      'COUNTRY_CODE': 'US',
      'LAUNCH_DATE': '2020-01-07',
      'SITE': 'AFETR',
